[Satellite]
VERSION=1.1
NAME=STARLINK-5167
NICKNAME=STARLINK-5167
TLE1=1 54058U 22136H   22321.58334491  .00063632  00000+0  11218-2 0  9997
TLE2=2 54058  53.2148  10.5860 0001829  42.3633  88.9644 15.49838317  1300
STATUS=0
